NORAD_CAT_ID,OBJECT_NAME,OBJECT_TYPE,EPOCH,MEAN_MOTION,ECCENTRICITY,INCLINATION,RA_OF_ASC_NODE,ARG_OF_PERICENTER,MEAN_ANOMALY,BSTAR,MEAN_MOTION_DOT,MEAN_MOTION_DDOT,TLE_LINE0,TLE_LINE1,TLE_LINE2,SEMIMAJOR_AXIS,PERIOD,APOGEE,PERIGEE,DECAYED
53425.0,STARLINK-4531,PAYLOAD,2023-10-24 14:04:42,15.08848022,0.0001555,53.2189,46.6972,90.7517,269.3653,0.00032894,4.952e-05,0.0,0 STARLINK-4531,1 53425U 22097AP  23297.58659981  .00004952  00000-0  32894-3 0  9992,2 53425  53.2189  46.6972 0001555  90.7517 269.3653 15.08848022 67711,6917.856,95.437,540.797,538.645,0.0
53425.0,STARLINK-4531,PAYLOAD,2023-10-25 13:55:30,15.08843539,0.0001346,53.2188,42.2357,86.7755,273.3391,-4.1658e-05,-9.51e-06,0.0,0 STARLINK-4531,1 53425U 22097AP  23298.58021090 -.00000951  00000-0 -41658-4 0  9993,2 53425  53.2188  42.2357 0001346  86.7755 273.3391 15.08843539 67415,6917.87,95.437,540.666,538.803,0.0
53425.0,STARLINK-4531,PAYLOAD,2023-10-26 13:46:16,15.08848357,0.0001572,53.2199,37.7769,98.6991,261.418,1.3592e-05,-7.2e-07,0.0,0 STARLINK-4531,1 53425U 22097AP  23299.57380431 -.00000072  00000-0  13592-4 0  9999,2 53425  53.2199  37.7769 0001572  98.6991 261.4180 15.08848357 68012,6917.855,95.437,540.807,538.632,0.0
53425.0,STARLINK-4531,PAYLOAD,2023-10-26 23:18:35,15.08841571,0.000159,53.2198,35.9933,99.2683,260.8489,0.00015063,2.11e-05,0.0,0 STARLINK-4531,1 53425U 22097AP  23299.97124660  .00002110  00000-0  15063-3 0  9991,2 53425  53.2198  35.9933 0001590  99.2683 260.8489 15.08841571 67621,6917.876,95.437,540.841,538.641,0.0
53425.0,STARLINK-4531,PAYLOAD,2023-10-27 13:37:03,15.0885378,0.0001455,53.2182,33.3178,100.1152,260.0005,0.00036991,5.606e-05,0.0,0 STARLINK-4531,1 53425U 22097AP  23300.56740105  .00005606  00000-0  36991-3 0  9993,2 53425  53.2182  33.3178 0001455 100.1152 260.0005 15.08853780 68161,6917.838,95.437,540.71,538.697,0.0
53425.0,STARLINK-4531,PAYLOAD,2023-10-27 16:47:49,15.08863687,0.0001611,53.2187,32.722,99.6417,260.4757,0.00054238,8.36e-05,0.0,0 STARLINK-4531,1 53425U 22097AP  23300.69987756  .00008360  00000-0  54238-3 0  9996,2 53425  53.2187  32.7220 0001611  99.6417 260.4757 15.08863687 67734,6917.808,95.436,540.787,538.559,0.0
53425.0,STARLINK-4531,PAYLOAD,2023-10-27 23:09:23,15.08838622,0.0003597,53.2183,31.5314,78.16,281.9796,4.2394e-05,3.86e-06,0.0,0 STARLINK-4531,1 53425U 22097AP  23300.96485267  .00000386  00000-0  42394-4 0  9997,2 53425  53.2183  31.5314 0003597  78.1600 281.9796 15.08838622 67778,6917.885,95.438,542.238,537.261,0.0
53425.0,STARLINK-4531,PAYLOAD,2023-10-28 13:27:51,15.08825778,0.0001593,53.2187,28.8561,74.9711,285.1458,-0.0002452,-4.187e-05,0.0,0 STARLINK-4531,1 53425U 22097AP  23301.56101169 -.00004187  00000-0 -24520-3 0  9995,2 53425  53.2187  28.8561 0001593  74.9711 285.1458 15.08825778 67865,6917.924,95.438,540.891,538.687,0.0
53425.0,STARLINK-4531,PAYLOAD,2023-10-28 15:03:14,15.0882972,0.0001674,53.2189,28.558,75.8974,284.2204,-3.337e-05,-8.19e-06,0.0,0 STARLINK-4531,1 53425U 22097AP  23301.62725163 -.00000819  00000-0 -33370-4 0  9990,2 53425  53.2189  28.5580 0001674  75.8974 284.2204 15.08829720 68328,6917.912,95.438,540.935,538.619,0.0
53425.0,STARLINK-4531,PAYLOAD,2023-10-29 05:21:42,15.08855997,0.0001613,53.2185,25.8832,72.1413,287.9755,0.0015774,0.00024917,0.0,0 STARLINK-4531,1 53425U 22097AP  23302.22341195  .00024917  00000-0  15774-2 0  9995,2 53425  53.2185  25.8832 0001613  72.1413 287.9755 15.08855997 67960,6917.831,95.437,540.812,538.581,0.0
53425.0,STARLINK-4531,PAYLOAD,2023-10-29 13:18:37,15.08878508,0.0001508,53.2176,24.3971,70.194,289.9215,0.0017837,0.00028244,0.0,0 STARLINK-4531,1 53425U 22097AP  23302.55460430  .00028244  00000-0  17837-2 0  9994,2 53425  53.2176  24.3971 0001508  70.1940 289.9215 15.08878508 68466,6917.763,95.435,540.671,538.584,0.0
53425.0,STARLINK-4531,PAYLOAD,2023-10-30 05:12:29,15.08830464,0.0001386,53.2189,21.4236,86.936,273.1791,0.00022863,3.352e-05,0.0,0 STARLINK-4531,1 53425U 22097AP  23303.21700853  .00003352  00000-0  22863-3 0  9993,2 53425  53.2189  21.4236 0001386  86.9360 273.1791 15.08830464 68112,6917.91,95.438,540.733,538.816,0.0
53425.0,STARLINK-4531,PAYLOAD,2023-10-30 11:34:02,15.08824511,0.000139,53.2174,20.2341,86.3514,273.7637,0.0011351,0.00017816,0.0,0 STARLINK-4531,1 53425U 22097AP  23303.48197240  .00017816  00000-0  11351-2 0  9991,2 53425  53.2174  20.2341 0001390  86.3514 273.7637 15.08824511 68605,6917.928,95.439,540.754,538.831,0.0
53425.0,STARLINK-4531,PAYLOAD,2023-10-31 09:49:26,15.08838476,0.0001466,53.2178,16.0707,87.9738,272.1422,0.00079246,0.00012346,0.0,0 STARLINK-4531,1 53425U 22097AP  23304.40934009  .00012346  00000-0  79246-3 0  9997,2 53425  53.2178  16.0707 0001466  87.9738 272.1422 15.08838476 68292,6917.885,95.438,540.764,538.736,0.0
53425.0,STARLINK-4531,PAYLOAD,2023-11-01 11:15:37,15.08847363,0.0001505,53.2196,11.3126,92.4069,267.7096,0.00049633,7.621e-05,0.0,0 STARLINK-4531,1 53425U 22097AP  23305.46918034  .00007621  00000-0  49633-3 0  9991,2 53425  53.2196  11.3126 0001505  92.4069 267.7096 15.08847363 68457,6917.858,95.437,540.764,538.682,0.0
53425.0,STARLINK-4531,PAYLOAD,2023-11-02 11:06:23,15.08850479,0.0001384,53.2192,6.8539,95.9379,264.1771,0.00024207,3.568e-05,0.0,0 STARLINK-4531,1 53425U 22097AP  23306.46277537  .00003568  00000-0  24207-3 0  9994,2 53425  53.2192   6.8539 0001384  95.9379 264.1771 15.08850479 68607,6917.848,95.437,540.671,538.756,0.0
53425.0,STARLINK-4531,PAYLOAD,2023-11-03 04:35:38,15.08842124,0.0001412,53.2188,3.5809,93.9042,266.2111,5.9391e-05,6.57e-06,0.0,0 STARLINK-4531,1 53425U 22097AP  23307.19141844  .00000657  00000-0  59391-4 0  9995,2 53425  53.2188   3.5809 0001412  93.9042 266.2111 15.08842124 68714,6917.874,95.437,540.716,538.762,0.0
53425.0,STARLINK-4531,PAYLOAD,2023-11-03 10:57:11,15.08843932,0.0001369,53.2186,2.3921,91.697,268.4179,9.6839e-05,1.254e-05,0.0,0 STARLINK-4531,1 53425U 22097AP  23307.45637742  .00001254  00000-0  96839-4 0  9993,2 53425  53.2186   2.3921 0001369  91.6970 268.4179 15.08843932 69201,6917.868,95.437,540.68,538.786,0.0
53425.0,STARLINK-4531,PAYLOAD,2023-11-03 20:29:30,15.08836219,0.0001321,53.2181,0.6081,92.4015,267.7128,-3.122e-05,-7.85e-06,0.0,0 STARLINK-4531,1 53425U 22097AP  23307.85382069 -.00000785  00000-0 -31220-4 0  9999,2 53425  53.2181   0.6081 0001321  92.4015 267.7128 15.08836219 69263,6917.892,95.438,540.671,538.843,0.0
53425.0,STARLINK-4531,PAYLOAD,2023-11-04 04:26:26,15.08835765,0.0001467,53.2189,359.1237,102.8559,257.2597,-1.8893e-06,-3.18e-06,0.0,0 STARLINK-4531,1 53425U 22097AP  23308.18502324 -.00000318  00000-0 -18893-5 0  9998,2 53425  53.2189 359.1237 0001467 102.8559 257.2597 15.08835765 68860,6917.893,95.438,540.773,538.743,0.0
53425.0,STARLINK-4531,PAYLOAD,2023-11-04 10:47:58,15.08840619,0.0001393,53.2185,357.9336,94.0574,266.0577,7.1897e-05,8.57e-06,0.0,0 STARLINK-4531,1 53425U 22097AP  23308.44998328  .00000857  00000-0  71897-4 0  9998,2 53425  53.2185 357.9336 0001393  94.0574 266.0577 15.08840619 69354,6917.878,95.438,540.707,538.78,0.0
53425.0,STARLINK-4531,PAYLOAD,2023-11-04 20:20:17,15.08842704,0.0001478,53.2185,356.15,95.721,264.3951,5.2817e-05,5.53e-06,0.0,0 STARLINK-4531,1 53425U 22097AP  23308.84742050  .00000553  00000-0  52817-4 0  9995,2 53425  53.2185 356.1500 0001478  95.7210 264.3951 15.08842704 69418,6917.872,95.437,540.76,538.715,0.0
53425.0,STARLINK-4531,PAYLOAD,2023-11-05 10:38:44,15.08856744,0.0001446,53.2178,353.4729,88.2277,271.8881,0.00044362,6.782e-05,0.0,0 STARLINK-4531,1 53425U 22097AP  23309.44357626  .00006782  00000-0  44362-3 0  9998,2 53425  53.2178 353.4729 0001446  88.2277 271.8881 15.08856744 69052,6917.829,95.436,540.695,538.694,0.0
53425.0,STARLINK-4531,PAYLOAD,2023-11-05 12:14:08,15.08856184,0.0001386,53.2181,353.1743,91.3678,268.7473,0.0003961,6.024e-05,0.0,0 STARLINK-4531,1 53425U 22097AP  23309.50981482  .00006024  00000-0  39610-3 0  9997,2 53425  53.2181 353.1743 0001386  91.3678 268.7473 15.08856184 69513,6917.831,95.437,540.655,538.737,0.0
53425.0,STARLINK-4531,PAYLOAD,2023-11-06 02:32:36,15.08856925,0.0001832,53.2174,350.4985,85.0729,275.0472,0.00041157,6.271e-05,0.0,0 STARLINK-4531,1 53425U 22097AP  23310.10597562  .00006271  00000-0  41157-3 0  9990,2 53425  53.2174 350.4985 0001832  85.0729 275.0472 15.08856925 69159,6917.829,95.436,540.961,538.426,0.0
53425.0,STARLINK-4531,PAYLOAD,2023-11-06 10:29:31,15.08880161,0.0001811,53.2177,349.0119,85.3814,274.7384,0.0010031,0.0001573,0.0,0 STARLINK-4531,1 53425U 22097AP  23310.43716643  .00015730  00000-0  10031-2 0  9995,2 53425  53.2177 349.0119 0001811  85.3814 274.7384 15.08880161 69203,6917.758,95.435,540.875,538.37,0.0
53425.0,STARLINK-4531,PAYLOAD,2023-11-06 20:01:52,15.08788263,0.0002228,53.2176,347.2285,76.9237,283.2004,-0.0012638,-0.00020318,0.0,0 STARLINK-4531,1 53425U 22097AP  23310.83463518 -.00020318  00000-0 -12638-2 0  9994,2 53425  53.2176 347.2285 0002228  76.9237 283.2004 15.08788263 69264,6918.039,95.441,541.445,538.362,0.0
53425.0,STARLINK-4531,PAYLOAD,2023-11-07 08:44:58,15.08830358,0.0001495,53.2181,344.8467,94.3372,265.7791,0.0037697,0.00060204,0.0,0 STARLINK-4531,1 53425U 22097AP  23311.36456497  .00060204  00000-0  37697-2 0  9999,2 53425  53.2181 344.8467 0001495  94.3372 265.7791 15.08830358 69344,6917.91,95.438,540.809,538.741,0.0
53425.0,STARLINK-4531,PAYLOAD,2023-11-07 11:55:44,15.08842763,0.0001275,53.2183,344.2537,85.3421,274.7716,0.0041394,0.00066215,0.0,0 STARLINK-4531,1 53425U 22097AP  23311.49704737  .00066215  00000-0  41394-2 0  9993,2 53425  53.2183 344.2537 0001275  85.3421 274.7716 15.08842763 69811,6917.872,95.437,540.619,538.855,0.0
53425.0,STARLINK-4531,PAYLOAD,2023-11-07 19:52:41,15.08825855,0.0001228,53.2187,342.7667,92.4364,267.6769,0.00052163,8.02e-05,0.0,0 STARLINK-4531,1 53425U 22097AP  23311.82825321  .00008020  00000-0  52163-3 0  9990,2 53425  53.2187 342.7667 0001228  92.4364 267.6769 15.08825855 69413,6917.924,95.438,540.638,538.939,0.0
